XRISM                   
1 57800U 23137A   24289.43345017  .00011081  00000+0  78526-3 0  9999
2 57800  31.0039 326.0457 0008534 318.0541  41.9441 15.03560394 60709
